{
"type": "FeatureCollection",
"name": "city_corporation",
"crs": { "type": "name", "properties": { "name": "urn:ogc:def:crs:OGC:1.3:CRS84" } },
"features": [
{ "type": "Feature", "properties": { "matched_key": "A_302620", "navigation_parent_key": "D_3026", "admin_type": "city_corporation", "admin_label": "City Corporation", "map_level": "city_corporation", "admin_rank": 2, "displayable": 1, "geometry_status": "EXACT/GEOMETRY", "location_label": "Dhaka South City Corporation" }, "geometry": { "type": "Polygon", "coordinates": [ [ [ 90.467419756000083, 23.784954868000057 ], [ 90.467778432000046, 23.784899586000051 ], [ 90.468051829000046, 23.78498640600003 ], [ 90.468321434000075, 23.785241217000078 ], [ 90.468915306000042, 23.785280012000044 ], [ 90.470369049000055, 23.784950426000023 ], [ 90.471317855000052, 23.784839145000035 ], [ 90.470934405000037, 23.784316439000065 ], [ 90.47079136800005, 23.783777193000049 ], [ 90.470888641000045, 23.782681726000078 ], [ 90.472334702000069, 23.780690194000044 ], [ 90.472735856000043, 23.780002510000031 ], [ 90.473680375000072, 23.778940573000057 ], [ 90.474442669000041, 23.778378228000065 ], [ 90.475049695000052, 23.778137005000076 ], [ 90.475635380000085, 23.778099072000032 ], [ 90.477128838000056, 23.778205111000034 ], [ 90.477612830000055, 23.778036515000053 ], [ 90.48095231700006, 23.775036449000027 ], [ 90.481374396000035, 23.774551902000042 ], [ 90.48315917900004, 23.771500174000039 ], [ 90.48331782300005, 23.770774832000029 ], [ 90.483232874000066, 23.769530893000024 ], [ 90.482437489000063, 23.767415294000045 ], [ 90.482351320000078, 23.765837162000025 ], [ 90.482648433000065, 23.764406864000023 ], [ 90.482947994000085, 23.763475597000024 ], [ 90.483381701000042, 23.760669697000026 ], [ 90.48331803800005, 23.759872791000078 ], [ 90.48337566400005, 23.759034861000032 ], [ 90.48361518300004, 23.758291198000052 ], [ 90.484056352000039, 23.757677877000049 ], [ 90.484559811000054, 23.757324037000046 ], [ 90.485566929000072, 23.756837644000029 ], [ 90.486836881000045, 23.756443 ], [ 90.487843771000087, 23.755900139000062 ], [ 90.48852819800004, 23.755396683000072 ], [ 90.488788765000038, 23.755043595000075 ], [ 90.488928636000082, 23.754559924000034 ], [ 90.488907216000086, 23.754243858000052 ], [ 90.488744188000055, 23.753781466000078 ], [ 90.487931479000054, 23.752280148000068 ], [ 90.487566196000046, 23.751852265000025 ], [ 90.486372901000038, 23.751076984000065 ], [ 90.486029033000079, 23.750798061000069 ], [ 90.485866851000083, 23.750559213000031 ], [ 90.485764067000048, 23.750130500000068 ], [ 90.485881925000058, 23.749333024000066 ], [ 90.486102482000035, 23.748941682000066 ], [ 90.487490189000084, 23.747580196000058 ], [ 90.487891234000074, 23.746910538000066 ], [ 90.489902017000077, 23.745066093000048 ], [ 90.490948520000074, 23.74431985800004 ], [ 90.491815159000055, 23.744019037000044 ], [ 90.492642026000055, 23.743905755000071 ], [ 90.493509381000081, 23.743959442000062 ], [ 90.494457662000059, 23.743843507000065 ], [ 90.494658792000052, 23.743675765000035 ], [ 90.494778691000079, 23.743433766000066 ], [ 90.494369988000074, 23.742062155000042 ], [ 90.49382121900004, 23.740948412000023 ], [ 90.492907565000053, 23.739503891000027 ], [ 90.492561761000047, 23.738705631000073 ], [ 90.492293571000062, 23.737182270000062 ], [ 90.492084425000087, 23.735213879000071 ], [ 90.492363282000042, 23.734192333000067 ], [ 90.492642914000044, 23.733541113000058 ], [ 90.493025107000051, 23.733095050000031 ], [ 90.493669705000059, 23.732962025000063 ], [ 90.494799704000059, 23.73292228300005 ], [ 90.49568699200006, 23.732752343000072 ], [ 90.496291377000034, 23.732526854000071 ], [ 90.497147422000069, 23.732043128000043 ], [ 90.498201149000067, 23.731299084000057 ], [ 90.499098346000039, 23.730514891000041 ], [ 90.500714901000038, 23.728630931000055 ], [ 90.50095497600006, 23.728072404000045 ], [ 90.501072865000083, 23.727311044000032 ], [ 90.500908967000044, 23.726622858000042 ], [ 90.499283423000065, 23.723563879000039 ], [ 90.499241897000047, 23.723286268000038 ], [ 90.49926071200008, 23.722913624000057 ], [ 90.49952066700007, 23.722262451000063 ], [ 90.500341365000054, 23.720570745000032 ], [ 90.500438666000036, 23.719716868000035 ], [ 90.500837566000087, 23.718525562000025 ], [ 90.50162113500005, 23.717556558000069 ], [ 90.50308939100006, 23.716382098000054 ], [ 90.507497621000084, 23.713953798000034 ], [ 90.510175618000062, 23.712662392000027 ], [ 90.510779091000074, 23.712233620000063 ], [ 90.511879198000031, 23.711169534000078 ], [ 90.511980704000052, 23.710885892000078 ], [ 90.510734174000049, 23.709564143000023 ], [ 90.509715983000035, 23.709048934000066 ], [ 90.509741151000071, 23.708970127000043 ], [ 90.509241443000064, 23.708694082000022 ], [ 90.50881310300008, 23.70867159200003 ], [ 90.508238111000082, 23.708479307000061 ], [ 90.507728641000085, 23.708451106000041 ], [ 90.50604351700008, 23.708110098000077 ], [ 90.504351520000057, 23.707925261000071 ], [ 90.502954236000051, 23.707957339000075 ], [ 90.502221625000061, 23.707870616000037 ], [ 90.503353491000041, 23.706285828000034 ], [ 90.503183632000059, 23.706105189000027 ], [ 90.501753978000067, 23.705640146000064 ], [ 90.499079781000034, 23.70547810000005 ], [ 90.499157070000081, 23.705138003000059 ], [ 90.499283099000081, 23.70509344900006 ], [ 90.499230401000034, 23.704176027000074 ], [ 90.498054611000043, 23.704119199000047 ], [ 90.498093337000057, 23.703695497000069 ], [ 90.494437980000043, 23.703504948000045 ], [ 90.493417134000083, 23.703320782000048 ], [ 90.492803174000073, 23.702758213000038 ], [ 90.491883659000052, 23.702291451000065 ], [ 90.491469294000069, 23.700508868000043 ], [ 90.491059155000073, 23.699853062000045 ], [ 90.490344953000033, 23.699855325000044 ], [ 90.490039739000053, 23.700043716000039 ], [ 90.489632062000055, 23.70004500400006 ], [ 90.48871187900005, 23.699390803000028 ], [ 90.488505641000074, 23.698829187000058 ], [ 90.488199034000047, 23.698642734000032 ], [ 90.487791361000063, 23.698644018000039 ], [ 90.487484754000036, 23.698457561000055 ], [ 90.485444457000085, 23.698274290000029 ], [ 90.483607279000069, 23.697810355000058 ], [ 90.483403057000032, 23.697623569000029 ], [ 90.483402028000057, 23.697343568000065 ], [ 90.483095423000066, 23.697154846000046 ], [ 90.481383141000038, 23.696640814000034 ], [ 90.480062002000068, 23.695960709000076 ], [ 90.480058392000046, 23.694973929000071 ], [ 90.479698772000063, 23.694365353000023 ], [ 90.478823967000039, 23.693989874000067 ], [ 90.478808714000081, 23.693563891000053 ], [ 90.478317798000035, 23.693497047000051 ], [ 90.478113769000061, 23.693101199000068 ], [ 90.477995829000065, 23.693154639000056 ], [ 90.477580189000037, 23.693041209000057 ], [ 90.477204752000034, 23.692564395000034 ], [ 90.476827230000083, 23.692264187000035 ], [ 90.476228175000074, 23.69225033400005 ], [ 90.476260682000031, 23.691459499000075 ], [ 90.475971990000062, 23.690499700000032 ], [ 90.476032807000081, 23.689969352000048 ], [ 90.475576767000064, 23.690039590000026 ], [ 90.475498506000065, 23.689432152000052 ], [ 90.475127401000066, 23.688475792000077 ], [ 90.474925906000067, 23.688287552000077 ], [ 90.474771007000072, 23.688250052000058 ], [ 90.472915252000064, 23.688886223000054 ], [ 90.472652352000068, 23.688254823000022 ], [ 90.472563752000042, 23.687826323000024 ], [ 90.472618152000052, 23.687751923000064 ], [ 90.47241375200008, 23.687076157000035 ], [ 90.47147480700005, 23.687157252000077 ], [ 90.471402389000048, 23.687050980000038 ], [ 90.470954769000059, 23.687058317000037 ], [ 90.470870906000073, 23.686976153000046 ], [ 90.470324473000062, 23.687115491000043 ], [ 90.469858584000065, 23.687124735000054 ], [ 90.469474449000074, 23.686601694000046 ], [ 90.468862354000066, 23.686510966000071 ], [ 90.468557976000056, 23.686934156000063 ], [ 90.468499502000043, 23.68716958400006 ], [ 90.468386432000045, 23.68820951500004 ], [ 90.468270380000035, 23.688413005000029 ], [ 90.468235161000052, 23.689452700000061 ], [ 90.467867909000063, 23.690830725000069 ], [ 90.466949552000074, 23.690707524000061 ], [ 90.466764092000062, 23.690260871000078 ], [ 90.466602152000064, 23.69014502400006 ], [ 90.46681410900004, 23.690153192000025 ], [ 90.466946307000057, 23.690009054000029 ], [ 90.467153808000035, 23.690042654000024 ], [ 90.467189008000048, 23.689832153000054 ], [ 90.467068608000034, 23.689475953000056 ], [ 90.466974478000054, 23.689498959000048 ], [ 90.466890583000065, 23.689224990000071 ], [ 90.466674076000061, 23.689087138000048 ], [ 90.466611907000072, 23.688956354000027 ], [ 90.46679500700003, 23.688843954000049 ], [ 90.466768637000087, 23.688402789000065 ], [ 90.466464956000038, 23.688386975000071 ], [ 90.466443985000069, 23.687889230000053 ], [ 90.466577603000076, 23.687881659000027 ], [ 90.466593807000038, 23.687724554000056 ], [ 90.466809806000072, 23.687584654000034 ], [ 90.466730707000067, 23.687472854000077 ], [ 90.466600607000032, 23.687361054000064 ], [ 90.466389503000073, 23.687332023000067 ], [ 90.465784840000083, 23.687435673000039 ], [ 90.465696659000059, 23.687118292000036 ], [ 90.465375427000083, 23.687144723000074 ], [ 90.465256708000084, 23.686856042000045 ], [ 90.465128917000072, 23.686775133000026 ], [ 90.464834779000057, 23.686803114000043 ], [ 90.464606573000083, 23.686701113000026 ], [ 90.464457369000058, 23.686217765000038 ], [ 90.464048457000047, 23.68632675200007 ], [ 90.463558133000049, 23.686293825000064 ], [ 90.46317682800003, 23.686373042000071 ], [ 90.463007562000087, 23.686206259000073 ], [ 90.462915726000062, 23.685919750000039 ], [ 90.462123366000071, 23.685671181000032 ], [ 90.462045222000086, 23.685587769000051 ], [ 90.46203111300008, 23.685265179000055 ], [ 90.462171987000033, 23.684738989000039 ], [ 90.461938599000064, 23.684614694000061 ], [ 90.461509763000038, 23.684597573000076 ], [ 90.461144578000074, 23.684060941000041 ], [ 90.460914498000079, 23.684023592000074 ], [ 90.460470717000078, 23.684142544000053 ], [ 90.460359413000049, 23.683863752000036 ], [ 90.46061747400006, 23.683447522000051 ], [ 90.460595897000076, 23.683214335000059 ], [ 90.460366549000071, 23.682932057000073 ], [ 90.459158689000049, 23.68196961700005 ], [ 90.459334022000064, 23.681625864000068 ], [ 90.459813054000051, 23.681141495000077 ], [ 90.46059692700004, 23.680689958000073 ], [ 90.460755693000067, 23.680465355000024 ], [ 90.460662609000053, 23.679820368000037 ], [ 90.460827085000062, 23.67862494700006 ], [ 90.45936120600004, 23.67765375700003 ], [ 90.453322614000058, 23.672748846000047 ], [ 90.45205315000004, 23.670765410000058 ], [ 90.451216695000085, 23.670284609000078 ], [ 90.449520448000044, 23.669481132000044 ], [ 90.449102260000075, 23.669187140000076 ], [ 90.448419913000066, 23.669946100000061 ], [ 90.447029935000046, 23.67182882000003 ], [ 90.445421653000039, 23.673741372000052 ], [ 90.443568638000045, 23.675796240000068 ], [ 90.441780349000055, 23.677361457000075 ], [ 90.440224364000073, 23.678880108000044 ], [ 90.439464423000061, 23.680021644000078 ], [ 90.438546593000069, 23.680816739000022 ], [ 90.43727606200008, 23.681048399000076 ], [ 90.434902737000073, 23.682376083000065 ], [ 90.435190483000042, 23.682639476000077 ], [ 90.433024339000042, 23.684723017000067 ], [ 90.43249017100004, 23.684460311000066 ], [ 90.430444927000053, 23.685861527000043 ], [ 90.430609833000062, 23.68605074900006 ], [ 90.426765656000043, 23.689234052000074 ], [ 90.425621531000047, 23.690481426000076 ], [ 90.42554135000006, 23.691086821000056 ], [ 90.419262511000056, 23.697331846000054 ], [ 90.419057420000058, 23.697804350000069 ], [ 90.417499319000058, 23.699432146000049 ], [ 90.417500672000074, 23.699858928000026 ], [ 90.417311643000062, 23.699985893000076 ], [ 90.417156900000066, 23.699907274000054 ], [ 90.414604496000038, 23.702357418000076 ], [ 90.414483673000063, 23.702341933000071 ], [ 90.413317995000057, 23.703243781000026 ], [ 90.410624319000078, 23.705066480000028 ], [ 90.410714986000073, 23.705240113000059 ], [ 90.410276870000075, 23.705514503000074 ], [ 90.408535507000067, 23.706438166000055 ], [ 90.408216862000074, 23.70630579300007 ], [ 90.407742730000052, 23.706828675000054 ], [ 90.403368746000069, 23.70916825200004 ], [ 90.40126753900006, 23.71012436500007 ], [ 90.400513075000049, 23.71061633000005 ], [ 90.39894234500008, 23.711241375000043 ], [ 90.398341298000048, 23.711394226000039 ], [ 90.396785965000049, 23.711429833000068 ], [ 90.39494677600004, 23.711283245000061 ], [ 90.394608280000057, 23.711464755000065 ], [ 90.394036027000084, 23.711597184000027 ], [ 90.393280964000041, 23.711282967000045 ], [ 90.391293971000039, 23.710910897000076 ], [ 90.390595835000056, 23.709742953000045 ], [ 90.389891913000042, 23.709098907000055 ], [ 90.389106797000068, 23.708777973000053 ], [ 90.385686597000074, 23.70804812700004 ], [ 90.381732456000066, 23.707540821000066 ], [ 90.376129953000031, 23.707538730000067 ], [ 90.37134783700003, 23.707125752000024 ], [ 90.368795965000061, 23.707068627000069 ], [ 90.366402257000061, 23.707444645000066 ], [ 90.36530881200008, 23.707781433000036 ], [ 90.364309049000042, 23.708296383000061 ], [ 90.362897601000043, 23.709374569000033 ], [ 90.36193036800006, 23.710354604000031 ], [ 90.360994839000057, 23.711944251000034 ], [ 90.360717743000066, 23.712624592000054 ], [ 90.360587094000039, 23.714835602000051 ], [ 90.360113943000044, 23.717361287000074 ], [ 90.359846448000042, 23.719760038000061 ], [ 90.35990998300008, 23.720791855000073 ], [ 90.359643550000044, 23.72089860400007 ], [ 90.358355175000042, 23.726013984000076 ], [ 90.357740110000066, 23.726898334000055 ], [ 90.355612765000046, 23.727960042000063 ], [ 90.355105269000035, 23.728044758000067 ], [ 90.356474954000078, 23.728423229000043 ], [ 90.357942348000051, 23.729101793000041 ], [ 90.357504573000085, 23.730067653000049 ], [ 90.357041241000047, 23.731512205000058 ], [ 90.356420398000068, 23.732986246000053 ], [ 90.354957438000042, 23.735271086000068 ], [ 90.35437777900006, 23.736573093000061 ], [ 90.351830241000073, 23.739941250000072 ], [ 90.351865584000052, 23.740313760000049 ], [ 90.351719532000061, 23.740768046000028 ], [ 90.352522913000087, 23.741153346000033 ], [ 90.353129913000032, 23.741158845000029 ], [ 90.355283614000086, 23.741416346000051 ], [ 90.355866809000077, 23.74167785800006 ], [ 90.357051014000035, 23.741807846000029 ], [ 90.360153308000065, 23.742474541000036 ], [ 90.35972042800006, 23.743872718000034 ], [ 90.361572218000049, 23.743883994000043 ], [ 90.361681612000041, 23.743419108000069 ], [ 90.361842170000045, 23.743392898000025 ], [ 90.362038158000075, 23.743523407000055 ], [ 90.362026305000086, 23.743612064000047 ], [ 90.362565972000084, 23.743691678000062 ], [ 90.362563993000037, 23.743550693000032 ], [ 90.363006558000052, 23.743588785000043 ], [ 90.363008948000072, 23.743514216000051 ], [ 90.363369312000032, 23.743557315000032 ], [ 90.363365912000063, 23.743608209000058 ], [ 90.363996912000061, 23.743540609000036 ], [ 90.363908411000068, 23.744081209000058 ], [ 90.364274584000043, 23.744088892000036 ], [ 90.364283612000065, 23.744427510000037 ], [ 90.36459231200007, 23.744458809000037 ], [ 90.364564187000042, 23.744565163000061 ], [ 90.365191211000081, 23.74465950900003 ], [ 90.365777512000079, 23.744861110000045 ], [ 90.36617341200008, 23.743934310000043 ], [ 90.367092122000031, 23.744235416000038 ], [ 90.366777077000052, 23.744883472000026 ], [ 90.366828756000075, 23.744911729000023 ], [ 90.366744058000052, 23.745205526000063 ], [ 90.36753685900004, 23.74548283300004 ], [ 90.368317920000038, 23.746196217000033 ], [ 90.368445687000076, 23.746567994000031 ], [ 90.368270258000052, 23.747113270000057 ], [ 90.368380458000047, 23.747143670000071 ], [ 90.368355158000043, 23.747312770000065 ], [ 90.368814259000033, 23.747334070000022 ], [ 90.368876259000047, 23.747160070000064 ], [ 90.369341459000054, 23.747115071000053 ], [ 90.369627273000049, 23.747279900000024 ], [ 90.366647250000085, 23.751776791000054 ], [ 90.367314738000061, 23.752169232000028 ], [ 90.367239108000035, 23.752265510000029 ], [ 90.371395208000081, 23.754701212000043 ], [ 90.37495309500008, 23.756929911000043 ], [ 90.374167072000034, 23.758319521000033 ], [ 90.379418394000083, 23.758507687000076 ], [ 90.379684328000053, 23.75693990700006 ], [ 90.380395257000032, 23.756967511000028 ], [ 90.380394273000036, 23.756628800000044 ], [ 90.380653081000048, 23.756623645000047 ], [ 90.380614367000078, 23.756386638000038 ], [ 90.381199516000038, 23.756096668000055 ], [ 90.381252509000035, 23.755949154000064 ], [ 90.381370440000069, 23.755910572000062 ], [ 90.38099743500004, 23.755057779000026 ], [ 90.380687427000055, 23.755146757000034 ], [ 90.380584975000033, 23.754715710000028 ], [ 90.380909243000076, 23.754653942000061 ], [ 90.380875038000056, 23.754236787000025 ], [ 90.380590407000057, 23.754245936000075 ], [ 90.380530283000041, 23.753782593000039 ], [ 90.380654074000063, 23.753773039000066 ], [ 90.380571919000033, 23.753177969000035 ], [ 90.380652270000041, 23.753180028000031 ], [ 90.380648264000058, 23.753085276000036 ], [ 90.380731635000075, 23.753097248000074 ], [ 90.380812468000045, 23.753443081000057 ], [ 90.381114801000081, 23.753422764000049 ], [ 90.381354112000054, 23.753252817000032 ], [ 90.382204596000065, 23.753295682000044 ], [ 90.382228572000031, 23.753119668000068 ], [ 90.382556149000038, 23.753152923000073 ], [ 90.382564435000063, 23.753014447000055 ], [ 90.382777635000082, 23.753134148000072 ], [ 90.383141594000051, 23.753142264000076 ], [ 90.383451075000039, 23.752850200000069 ], [ 90.384255487000075, 23.752764652000053 ], [ 90.384673964000058, 23.752623609000068 ], [ 90.385181985000031, 23.752274594000028 ], [ 90.385694990000047, 23.751744918000043 ], [ 90.386405840000066, 23.751338940000039 ], [ 90.387163900000076, 23.751117112000031 ], [ 90.387136824000038, 23.750957995000078 ], [ 90.393075198000076, 23.749910756000077 ], [ 90.393934021000064, 23.74824213100004 ], [ 90.394762373000049, 23.745882899000037 ], [ 90.400128971000072, 23.747341313000049 ], [ 90.402962138000078, 23.748395049000067 ], [ 90.405285488000061, 23.749129829000026 ], [ 90.406511094000052, 23.749179188000028 ], [ 90.407403737000038, 23.749023886000032 ], [ 90.408019347000049, 23.748808758000052 ], [ 90.409000143000071, 23.748148524000044 ], [ 90.40932005600007, 23.748443176000023 ], [ 90.409420517000058, 23.748293395000076 ], [ 90.41001962100006, 23.748235387000022 ], [ 90.410354286000086, 23.748255654000047 ], [ 90.410358118000033, 23.748387286000025 ], [ 90.410538959000064, 23.748418096000023 ], [ 90.410685671000067, 23.748284199000068 ], [ 90.410806307000087, 23.748361076000037 ], [ 90.410803996000084, 23.748451897000052 ], [ 90.411074074000055, 23.748453304000066 ], [ 90.41115463400007, 23.748950609000076 ], [ 90.411556823000069, 23.748940397000069 ], [ 90.411618855000086, 23.749333790000037 ], [ 90.41108425200008, 23.749445810000054 ], [ 90.411156455000082, 23.749854136000067 ], [ 90.412737909000043, 23.749635848000025 ], [ 90.412882299000046, 23.749924069000031 ], [ 90.413498836000031, 23.749749311000073 ], [ 90.416060480000056, 23.749414104000039 ], [ 90.416280344000086, 23.750683913000046 ], [ 90.416675443000031, 23.751687713000024 ], [ 90.417044844000031, 23.752043713000035 ], [ 90.418154409000067, 23.752380907000031 ], [ 90.419987008000078, 23.752351808000071 ], [ 90.421304743000064, 23.752146466000056 ], [ 90.423906247000048, 23.751346759000057 ], [ 90.424591326000041, 23.750974550000024 ], [ 90.424972311000033, 23.750672377000058 ], [ 90.425131011000076, 23.751002885000048 ], [ 90.425478444000078, 23.752677360000064 ], [ 90.426843051000048, 23.752687481000066 ], [ 90.426848155000073, 23.753456422000056 ], [ 90.426715157000046, 23.754501998000023 ], [ 90.426938975000041, 23.754508198000053 ], [ 90.426963036000075, 23.754648042000042 ], [ 90.426883631000067, 23.754781495000032 ], [ 90.426952125000071, 23.755279097000027 ], [ 90.426883633000045, 23.755317471000069 ], [ 90.426787897000054, 23.755919315000028 ], [ 90.426944576000039, 23.755988166000066 ], [ 90.426846519000037, 23.75641870000004 ], [ 90.426706721000073, 23.756401008000068 ], [ 90.426559825000083, 23.75679401900004 ], [ 90.426427259000036, 23.756785219000051 ], [ 90.426378867000039, 23.757162191000077 ], [ 90.426110269000048, 23.757941295000023 ], [ 90.42659892000006, 23.758019507000029 ], [ 90.427360400000055, 23.758303374000036 ], [ 90.427500500000065, 23.757940674000054 ], [ 90.429256499000076, 23.758753673000058 ], [ 90.430305500000031, 23.760997373000066 ], [ 90.431082587000049, 23.760771479000027 ], [ 90.431149839000057, 23.760973574000047 ], [ 90.43125258300006, 23.760949628000049 ], [ 90.431313694000039, 23.761135724000042 ], [ 90.431427166000049, 23.761102809000079 ], [ 90.431493010000054, 23.761280647000035 ], [ 90.431599131000041, 23.761247121000054 ], [ 90.431678790000035, 23.761461064000059 ], [ 90.431996800000036, 23.761375072000078 ], [ 90.432102950000058, 23.761817750000034 ], [ 90.432488827000043, 23.762736326000038 ], [ 90.432673950000037, 23.762953122000056 ], [ 90.433067023000035, 23.763735030000078 ], [ 90.433822964000058, 23.763570149000032 ], [ 90.433824728000047, 23.763427161000038 ], [ 90.435724279000056, 23.763053746000026 ], [ 90.436671791000038, 23.763017199000046 ], [ 90.437478955000074, 23.762646844000074 ], [ 90.440321295000047, 23.762663609000072 ], [ 90.445111181000073, 23.762250477000066 ], [ 90.446159397000031, 23.762286006000068 ], [ 90.448696858000062, 23.76207776800004 ], [ 90.448651639000047, 23.761387753000065 ], [ 90.450468608000051, 23.761284395000075 ], [ 90.450492119000046, 23.760326122000038 ], [ 90.452367848000051, 23.760330913000075 ], [ 90.452675231000057, 23.76449976300006 ], [ 90.448927224000045, 23.764803607000033 ], [ 90.449193855000033, 23.768049192000035 ], [ 90.456447667000077, 23.767502163000074 ], [ 90.457587538000041, 23.767485647000058 ], [ 90.460058652000043, 23.767201444000023 ], [ 90.460597806000067, 23.766932175000022 ], [ 90.460921792000079, 23.766961637000065 ], [ 90.46047033900004, 23.767830090000075 ], [ 90.460429415000078, 23.768227637000052 ], [ 90.460494375000053, 23.768559382000035 ], [ 90.461214729000062, 23.769151110000053 ], [ 90.461204811000073, 23.769295656000054 ], [ 90.459940862000053, 23.770584279000047 ], [ 90.459753247000037, 23.771305171000051 ], [ 90.460123427000042, 23.771392133000063 ], [ 90.460715100000073, 23.771320367000044 ], [ 90.460831921000079, 23.771399053000039 ], [ 90.460843209000075, 23.771642891000056 ], [ 90.460621567000032, 23.771758715000033 ], [ 90.46050639200007, 23.771973578000029 ], [ 90.461100272000067, 23.772527295000032 ], [ 90.461227815000086, 23.77251562400005 ], [ 90.461303814000075, 23.773018950000051 ], [ 90.461820522000039, 23.773256763000063 ], [ 90.462180303000082, 23.773696016000031 ], [ 90.462181859000054, 23.774136336000026 ], [ 90.461466538000082, 23.774632999000062 ], [ 90.459375028000068, 23.774693428000035 ], [ 90.458837462000076, 23.774805674000049 ], [ 90.458719772000052, 23.775354739000022 ], [ 90.459082094000053, 23.776344962000053 ], [ 90.459443257000032, 23.777003250000064 ], [ 90.459745274000056, 23.777937199000064 ], [ 90.460285562000081, 23.778594952000049 ], [ 90.461242824000067, 23.779032423000046 ], [ 90.461962087000074, 23.779470598000046 ], [ 90.462321882000083, 23.779909848000045 ], [ 90.462323440000034, 23.780350170000077 ], [ 90.46208789700006, 23.781396369000049 ], [ 90.462926561000074, 23.781942572000048 ], [ 90.463467477000052, 23.78276740900003 ], [ 90.463473595000039, 23.782936747000065 ], [ 90.46424508900003, 23.782873460000076 ], [ 90.464568718000066, 23.782624097000053 ], [ 90.465263299000071, 23.783532014000059 ], [ 90.465622550000035, 23.783639319000031 ], [ 90.466042490000063, 23.78407837900005 ], [ 90.466283868000062, 23.784847658000047 ], [ 90.466524685000081, 23.785287254000025 ], [ 90.466883746000065, 23.785340365000025 ], [ 90.467419756000083, 23.784954868000057 ] ] ] } },
{ "type": "Feature", "properties": { "matched_key": "A_302625", "navigation_parent_key": "D_3026", "admin_type": "city_corporation", "admin_label": "City Corporation", "map_level": "city_corporation", "admin_rank": 2, "displayable": 1, "geometry_status": "EXACT/GEOMETRY", "location_label": "Dhaka North City Corporation" }, "geometry": { "type": "Polygon", "coordinates": [ [ [ 90.438750866000078, 23.900340751000044 ], [ 90.439730937000036, 23.900195695000036 ], [ 90.440635453000084, 23.899861173000033 ], [ 90.441054353000084, 23.89954384300006 ], [ 90.441894471000069, 23.899232081000036 ], [ 90.442510394000067, 23.899076760000071 ], [ 90.443295509000052, 23.899022566000042 ], [ 90.444807578000052, 23.898245944000053 ], [ 90.445872138000084, 23.898037380000062 ], [ 90.447272180000084, 23.897364931000027 ], [ 90.447830969000051, 23.896848469000076 ], [ 90.448670165000067, 23.896279250000077 ], [ 90.449734426000077, 23.895813242000031 ], [ 90.451023671000087, 23.895603984000047 ], [ 90.453042050000079, 23.895494183000039 ], [ 90.454220185000054, 23.895644256000026 ], [ 90.454950307000047, 23.89584983900005 ], [ 90.455791270000077, 23.895795416000055 ], [ 90.456801364000057, 23.895997903000023 ], [ 90.457698992000076, 23.895995235000044 ], [ 90.458815058000084, 23.896144607000053 ], [ 90.458715029000075, 23.89578322400007 ], [ 90.458893891000059, 23.895266908000053 ], [ 90.459399073000043, 23.894645037000032 ], [ 90.459847703000037, 23.894227827000066 ], [ 90.460521860000085, 23.893966659000057 ], [ 90.461307255000065, 23.89339614000005 ], [ 90.461588112000072, 23.892877223000028 ], [ 90.460633793000056, 23.891844252000055 ], [ 90.460582187000057, 23.891460447000043 ], [ 90.460690367000041, 23.890912548000074 ], [ 90.460633857000062, 23.890290200000038 ], [ 90.460970622000048, 23.890030112000034 ], [ 90.461083088000066, 23.889718487000039 ], [ 90.461588237000058, 23.889251107000064 ], [ 90.461756628000046, 23.888837061000061 ], [ 90.461698102000071, 23.888648653000075 ], [ 90.46091479200004, 23.887751472000048 ], [ 90.460690553000063, 23.886407165000037 ], [ 90.460690574000068, 23.885889148000047 ], [ 90.460465701000032, 23.885165100000052 ], [ 90.460297342000047, 23.884906631000035 ], [ 90.460578208000072, 23.883869697000023 ], [ 90.460914969000044, 23.883350600000028 ], [ 90.461532544000079, 23.882778346000066 ], [ 90.461772196000084, 23.882668521000028 ], [ 90.462077148000049, 23.882648331000041 ], [ 90.462072818000081, 23.881428994000032 ], [ 90.461628884000049, 23.880888393000077 ], [ 90.460838452000075, 23.879581088000066 ], [ 90.460786621000068, 23.878813502000071 ], [ 90.460980988000074, 23.878225826000062 ], [ 90.462894235000078, 23.877632988000073 ], [ 90.463630416000058, 23.87749529000007 ], [ 90.464218458000062, 23.87713222800005 ], [ 90.464854316000071, 23.876407731000029 ], [ 90.46524445600005, 23.875638813000023 ], [ 90.46612407300006, 23.874416800000063 ], [ 90.466662337000059, 23.873873235000076 ], [ 90.467543550000073, 23.873102822000078 ], [ 90.468817298000033, 23.872240886000043 ], [ 90.470286487000067, 23.871107376000055 ], [ 90.471294114000045, 23.869997845000057 ], [ 90.47184993500008, 23.868889695000064 ], [ 90.472435784000083, 23.867939513000067 ], [ 90.473019166000086, 23.866311920000044 ], [ 90.472768550000069, 23.864912692000075 ], [ 90.472712233000038, 23.86292577200004 ], [ 90.472907341000052, 23.862563884000053 ], [ 90.473100152000086, 23.861569746000043 ], [ 90.472750192000035, 23.859854694000035 ], [ 90.472403024000073, 23.858907371000043 ], [ 90.474366220000036, 23.857803862000026 ], [ 90.474512202000085, 23.855079033000038 ], [ 90.47416250200007, 23.851806074000024 ], [ 90.47327765700004, 23.848518460000037 ], [ 90.473283494000043, 23.848167579000062 ], [ 90.472671821000063, 23.846033329000022 ], [ 90.47254795200007, 23.845216289000064 ], [ 90.472617914000068, 23.842337040000075 ], [ 90.472817469000063, 23.841686106000054 ], [ 90.474124393000068, 23.840083377000042 ], [ 90.476680869000063, 23.837828716000047 ], [ 90.477563314000065, 23.836304047000056 ], [ 90.478262311000037, 23.834127361000071 ], [ 90.478523608000046, 23.833756228000027 ], [ 90.480759284000044, 23.832263461000025 ], [ 90.482495347000054, 23.830605868000077 ], [ 90.483102310000049, 23.830616949000046 ], [ 90.483784558000082, 23.830767758000036 ], [ 90.484084628000062, 23.830980943000043 ], [ 90.484620138000082, 23.831912243000033 ], [ 90.485070134000068, 23.832201428000076 ], [ 90.486050873000067, 23.832137160000059 ], [ 90.486630805000061, 23.83160001300007 ], [ 90.486841526000035, 23.830146342000035 ], [ 90.487443873000075, 23.827281496000069 ], [ 90.488236502000063, 23.825262890000033 ], [ 90.488251467000055, 23.824819293000076 ], [ 90.488217014000043, 23.824498212000037 ], [ 90.487982540000075, 23.824040111000045 ], [ 90.487798802000043, 23.823811269000032 ], [ 90.487415503000079, 23.823567765000064 ], [ 90.487125886000058, 23.82314120500007 ], [ 90.487023044000068, 23.82271475400006 ], [ 90.486651535000078, 23.820505278000041 ], [ 90.48668219800004, 23.817867757000045 ], [ 90.486862925000082, 23.817625572000054 ], [ 90.487125334000041, 23.817568291000043 ], [ 90.488882441000044, 23.817824667000025 ], [ 90.489313854000045, 23.817734807000022 ], [ 90.490360825000039, 23.816520051000055 ], [ 90.488934698000037, 23.815557399000056 ], [ 90.488469652000049, 23.815409840000029 ], [ 90.48798505700006, 23.815449760000035 ], [ 90.487078257000064, 23.81580488700007 ], [ 90.486431932000073, 23.815750476000062 ], [ 90.486088177000056, 23.815548332000049 ], [ 90.485092722000047, 23.814009205000048 ], [ 90.485071980000043, 23.813711203000025 ], [ 90.485330394000073, 23.812746194000056 ], [ 90.485245527000075, 23.811538393000035 ], [ 90.485000197000033, 23.810739806000072 ], [ 90.484553148000032, 23.809980241000062 ], [ 90.484145771000044, 23.808996999000044 ], [ 90.484345839000071, 23.808513144000074 ], [ 90.485149767000053, 23.807564485000057 ], [ 90.485289580000085, 23.807211786000039 ], [ 90.485287572000061, 23.806672114000037 ], [ 90.485185297000044, 23.806227592000027 ], [ 90.484656236000035, 23.805188284000053 ], [ 90.48396678000006, 23.804242057000067 ], [ 90.483091052000077, 23.80259413400006 ], [ 90.482766232000074, 23.80179580600003 ], [ 90.481949098000086, 23.799160927000059 ], [ 90.481785139000067, 23.79845466300003 ], [ 90.481700180000075, 23.79721072600006 ], [ 90.481777260000058, 23.796318545000076 ], [ 90.481566591000046, 23.793923383000049 ], [ 90.48136071600004, 23.792828857000075 ], [ 90.480872231000035, 23.791789404000042 ], [ 90.480041239000059, 23.790863921000039 ], [ 90.479130570000052, 23.790123842000071 ], [ 90.476600915000063, 23.788365854000062 ], [ 90.476256640000031, 23.787996593000059 ], [ 90.475911002000032, 23.787421848000065 ], [ 90.47536442300003, 23.786922238000045 ], [ 90.474071195000079, 23.786571696000067 ], [ 90.473019625000063, 23.786037497000052 ], [ 90.47225112600006, 23.785574685000029 ], [ 90.471317855000052, 23.784839145000035 ], [ 90.470369049000055, 23.784950426000023 ], [ 90.468915306000042, 23.785280012000044 ], [ 90.468321434000075, 23.785241217000078 ], [ 90.468051829000046, 23.78498640600003 ], [ 90.467778432000046, 23.784899586000051 ], [ 90.467419756000083, 23.784954868000057 ], [ 90.466883746000065, 23.785340365000025 ], [ 90.466524685000081, 23.785287254000025 ], [ 90.466283868000062, 23.784847658000047 ], [ 90.466042490000063, 23.78407837900005 ], [ 90.465622550000035, 23.783639319000031 ], [ 90.465263299000071, 23.783532014000059 ], [ 90.464568718000066, 23.782624097000053 ], [ 90.46424508900003, 23.782873460000076 ], [ 90.463473595000039, 23.782936747000065 ], [ 90.463467477000052, 23.78276740900003 ], [ 90.462926561000074, 23.781942572000048 ], [ 90.46208789700006, 23.781396369000049 ], [ 90.462323440000034, 23.780350170000077 ], [ 90.462321882000083, 23.779909848000045 ], [ 90.461962087000074, 23.779470598000046 ], [ 90.461242824000067, 23.779032423000046 ], [ 90.460285562000081, 23.778594952000049 ], [ 90.459745274000056, 23.777937199000064 ], [ 90.459443257000032, 23.777003250000064 ], [ 90.459082094000053, 23.776344962000053 ], [ 90.458719772000052, 23.775354739000022 ], [ 90.458837462000076, 23.774805674000049 ], [ 90.459375028000068, 23.774693428000035 ], [ 90.461466538000082, 23.774632999000062 ], [ 90.462181859000054, 23.774136336000026 ], [ 90.462180303000082, 23.773696016000031 ], [ 90.461820522000039, 23.773256763000063 ], [ 90.461303814000075, 23.773018950000051 ], [ 90.461227815000086, 23.77251562400005 ], [ 90.461100272000067, 23.772527295000032 ], [ 90.46050639200007, 23.771973578000029 ], [ 90.460621567000032, 23.771758715000033 ], [ 90.460843209000075, 23.771642891000056 ], [ 90.460831921000079, 23.771399053000039 ], [ 90.460715100000073, 23.771320367000044 ], [ 90.460123427000042, 23.771392133000063 ], [ 90.459753247000037, 23.771305171000051 ], [ 90.459940862000053, 23.770584279000047 ], [ 90.461204811000073, 23.769295656000054 ], [ 90.461214729000062, 23.769151110000053 ], [ 90.460494375000053, 23.768559382000035 ], [ 90.460429415000078, 23.768227637000052 ], [ 90.46047033900004, 23.767830090000075 ], [ 90.460921792000079, 23.766961637000065 ], [ 90.460597806000067, 23.766932175000022 ], [ 90.460058652000043, 23.767201444000023 ], [ 90.457587538000041, 23.767485647000058 ], [ 90.456447667000077, 23.767502163000074 ], [ 90.449193855000033, 23.768049192000035 ], [ 90.448927224000045, 23.764803607000033 ], [ 90.452675231000057, 23.76449976300006 ], [ 90.452367848000051, 23.760330913000075 ], [ 90.450492119000046, 23.760326122000038 ], [ 90.450468608000051, 23.761284395000075 ], [ 90.448651639000047, 23.761387753000065 ], [ 90.448696858000062, 23.76207776800004 ], [ 90.446159397000031, 23.762286006000068 ], [ 90.445111181000073, 23.762250477000066 ], [ 90.440321295000047, 23.762663609000072 ], [ 90.437478955000074, 23.762646844000074 ], [ 90.436671791000038, 23.763017199000046 ], [ 90.435724279000056, 23.763053746000026 ], [ 90.433824728000047, 23.763427161000038 ], [ 90.433822964000058, 23.763570149000032 ], [ 90.433067023000035, 23.763735030000078 ], [ 90.432673950000037, 23.762953122000056 ], [ 90.432488827000043, 23.762736326000038 ], [ 90.432102950000058, 23.761817750000034 ], [ 90.431996800000036, 23.761375072000078 ], [ 90.431678790000035, 23.761461064000059 ], [ 90.431599131000041, 23.761247121000054 ], [ 90.431493010000054, 23.761280647000035 ], [ 90.431427166000049, 23.761102809000079 ], [ 90.431313694000039, 23.761135724000042 ], [ 90.43125258300006, 23.760949628000049 ], [ 90.431149839000057, 23.760973574000047 ], [ 90.431082587000049, 23.760771479000027 ], [ 90.430305500000031, 23.760997373000066 ], [ 90.429256499000076, 23.758753673000058 ], [ 90.427500500000065, 23.757940674000054 ], [ 90.427360400000055, 23.758303374000036 ], [ 90.42659892000006, 23.758019507000029 ], [ 90.426110269000048, 23.757941295000023 ], [ 90.426378867000039, 23.757162191000077 ], [ 90.426427259000036, 23.756785219000051 ], [ 90.426559825000083, 23.75679401900004 ], [ 90.426706721000073, 23.756401008000068 ], [ 90.426846519000037, 23.75641870000004 ], [ 90.426944576000039, 23.755988166000066 ], [ 90.426787897000054, 23.755919315000028 ], [ 90.426883633000045, 23.755317471000069 ], [ 90.426952125000071, 23.755279097000027 ], [ 90.426883631000067, 23.754781495000032 ], [ 90.426963036000075, 23.754648042000042 ], [ 90.426938975000041, 23.754508198000053 ], [ 90.426715157000046, 23.754501998000023 ], [ 90.426848155000073, 23.753456422000056 ], [ 90.426843051000048, 23.752687481000066 ], [ 90.425478444000078, 23.752677360000064 ], [ 90.425131011000076, 23.751002885000048 ], [ 90.424972311000033, 23.750672377000058 ], [ 90.424591326000041, 23.750974550000024 ], [ 90.423906247000048, 23.751346759000057 ], [ 90.421304743000064, 23.752146466000056 ], [ 90.419987008000078, 23.752351808000071 ], [ 90.418154409000067, 23.752380907000031 ], [ 90.417044844000031, 23.752043713000035 ], [ 90.416675443000031, 23.751687713000024 ], [ 90.416280344000086, 23.750683913000046 ], [ 90.416060480000056, 23.749414104000039 ], [ 90.413498836000031, 23.749749311000073 ], [ 90.412882299000046, 23.749924069000031 ], [ 90.412737909000043, 23.749635848000025 ], [ 90.411156455000082, 23.749854136000067 ], [ 90.41108425200008, 23.749445810000054 ], [ 90.411618855000086, 23.749333790000037 ], [ 90.411556823000069, 23.748940397000069 ], [ 90.41115463400007, 23.748950609000076 ], [ 90.411074074000055, 23.748453304000066 ], [ 90.410803996000084, 23.748451897000052 ], [ 90.410806307000087, 23.748361076000037 ], [ 90.410685671000067, 23.748284199000068 ], [ 90.410538959000064, 23.748418096000023 ], [ 90.410358118000033, 23.748387286000025 ], [ 90.410354286000086, 23.748255654000047 ], [ 90.41001962100006, 23.748235387000022 ], [ 90.409420517000058, 23.748293395000076 ], [ 90.40932005600007, 23.748443176000023 ], [ 90.409000143000071, 23.748148524000044 ], [ 90.408019347000049, 23.748808758000052 ], [ 90.407403737000038, 23.749023886000032 ], [ 90.406511094000052, 23.749179188000028 ], [ 90.405285488000061, 23.749129829000026 ], [ 90.402962138000078, 23.748395049000067 ], [ 90.400128971000072, 23.747341313000049 ], [ 90.394762373000049, 23.745882899000037 ], [ 90.393934021000064, 23.74824213100004 ], [ 90.393075198000076, 23.749910756000077 ], [ 90.387136824000038, 23.750957995000078 ], [ 90.387163900000076, 23.751117112000031 ], [ 90.386405840000066, 23.751338940000039 ], [ 90.385694990000047, 23.751744918000043 ], [ 90.385181985000031, 23.752274594000028 ], [ 90.384673964000058, 23.752623609000068 ], [ 90.384255487000075, 23.752764652000053 ], [ 90.383451075000039, 23.752850200000069 ], [ 90.383141594000051, 23.753142264000076 ], [ 90.382777635000082, 23.753134148000072 ], [ 90.382564435000063, 23.753014447000055 ], [ 90.382556149000038, 23.753152923000073 ], [ 90.382228572000031, 23.753119668000068 ], [ 90.382204596000065, 23.753295682000044 ], [ 90.381354112000054, 23.753252817000032 ], [ 90.381114801000081, 23.753422764000049 ], [ 90.380812468000045, 23.753443081000057 ], [ 90.380731635000075, 23.753097248000074 ], [ 90.380648264000058, 23.753085276000036 ], [ 90.380652270000041, 23.753180028000031 ], [ 90.380571919000033, 23.753177969000035 ], [ 90.380654074000063, 23.753773039000066 ], [ 90.380530283000041, 23.753782593000039 ], [ 90.380590407000057, 23.754245936000075 ], [ 90.380875038000056, 23.754236787000025 ], [ 90.380909243000076, 23.754653942000061 ], [ 90.380584975000033, 23.754715710000028 ], [ 90.380687427000055, 23.755146757000034 ], [ 90.38099743500004, 23.755057779000026 ], [ 90.381370440000069, 23.755910572000062 ], [ 90.381252509000035, 23.755949154000064 ], [ 90.381199516000038, 23.756096668000055 ], [ 90.380614367000078, 23.756386638000038 ], [ 90.380653081000048, 23.756623645000047 ], [ 90.380394273000036, 23.756628800000044 ], [ 90.380395257000032, 23.756967511000028 ], [ 90.379684328000053, 23.75693990700006 ], [ 90.379418394000083, 23.758507687000076 ], [ 90.374167072000034, 23.758319521000033 ], [ 90.37495309500008, 23.756929911000043 ], [ 90.371395208000081, 23.754701212000043 ], [ 90.367239108000035, 23.752265510000029 ], [ 90.367314738000061, 23.752169232000028 ], [ 90.366647250000085, 23.751776791000054 ], [ 90.369627273000049, 23.747279900000024 ], [ 90.369341459000054, 23.747115071000053 ], [ 90.368876259000047, 23.747160070000064 ], [ 90.368814259000033, 23.747334070000022 ], [ 90.368355158000043, 23.747312770000065 ], [ 90.368380458000047, 23.747143670000071 ], [ 90.368270258000052, 23.747113270000057 ], [ 90.368445687000076, 23.746567994000031 ], [ 90.368317920000038, 23.746196217000033 ], [ 90.36753685900004, 23.74548283300004 ], [ 90.366744058000052, 23.745205526000063 ], [ 90.366828756000075, 23.744911729000023 ], [ 90.366777077000052, 23.744883472000026 ], [ 90.367092122000031, 23.744235416000038 ], [ 90.36617341200008, 23.743934310000043 ], [ 90.365777512000079, 23.744861110000045 ], [ 90.365191211000081, 23.74465950900003 ], [ 90.364564187000042, 23.744565163000061 ], [ 90.36459231200007, 23.744458809000037 ], [ 90.364283612000065, 23.744427510000037 ], [ 90.364274584000043, 23.744088892000036 ], [ 90.363908411000068, 23.744081209000058 ], [ 90.363996912000061, 23.743540609000036 ], [ 90.363365912000063, 23.743608209000058 ], [ 90.363369312000032, 23.743557315000032 ], [ 90.363008948000072, 23.743514216000051 ], [ 90.363006558000052, 23.743588785000043 ], [ 90.362563993000037, 23.743550693000032 ], [ 90.362565972000084, 23.743691678000062 ], [ 90.362026305000086, 23.743612064000047 ], [ 90.362038158000075, 23.743523407000055 ], [ 90.361842170000045, 23.743392898000025 ], [ 90.361681612000041, 23.743419108000069 ], [ 90.361572218000049, 23.743883994000043 ], [ 90.35972042800006, 23.743872718000034 ], [ 90.360153308000065, 23.742474541000036 ], [ 90.357051014000035, 23.741807846000029 ], [ 90.355866809000077, 23.74167785800006 ], [ 90.355283614000086, 23.741416346000051 ], [ 90.352414413000076, 23.741123945000027 ], [ 90.351719532000061, 23.740768046000028 ], [ 90.351865584000052, 23.740313760000049 ], [ 90.351830241000073, 23.739941250000072 ], [ 90.349906738000072, 23.738893332000032 ], [ 90.349157995000041, 23.741302188000077 ], [ 90.346563357000036, 23.743438039000068 ], [ 90.344724315000065, 23.745234485000026 ], [ 90.344096992000061, 23.745723637000026 ], [ 90.34319713800005, 23.746827598000039 ], [ 90.341494874000034, 23.748321726000029 ], [ 90.340346071000056, 23.748751046000052 ], [ 90.339317356000038, 23.748902343000054 ], [ 90.337486075000072, 23.748908611000047 ], [ 90.335772535000046, 23.748670724000078 ], [ 90.333634983000081, 23.748582769000052 ], [ 90.332108740000081, 23.748678640000037 ], [ 90.330888275000063, 23.748916102000067 ], [ 90.330023631000074, 23.749200216000077 ], [ 90.329465011000082, 23.749481415000048 ], [ 90.329160654000077, 23.749904331000039 ], [ 90.328907547000085, 23.750467142000048 ], [ 90.329369215000042, 23.751870710000048 ], [ 90.330430412000055, 23.753641068000036 ], [ 90.333019921000073, 23.756327186000078 ], [ 90.333990548000031, 23.757180918000074 ], [ 90.336419127000056, 23.75972054600004 ], [ 90.33690462800007, 23.760331440000073 ], [ 90.33795957600006, 23.762465311000028 ], [ 90.338548994000064, 23.76411696100007 ], [ 90.339279440000041, 23.765508615000044 ], [ 90.340028853000035, 23.766640538000047 ], [ 90.342656900000065, 23.768174765000026 ], [ 90.343284114000085, 23.768769513000052 ], [ 90.343608460000041, 23.769419129000028 ], [ 90.343651335000061, 23.770329053000069 ], [ 90.343113793000043, 23.771418658000073 ], [ 90.342488468000056, 23.771783602000028 ], [ 90.339943861000052, 23.772879892000049 ], [ 90.33825347700008, 23.773418775000039 ], [ 90.334548986000073, 23.774092988000064 ], [ 90.334162935000052, 23.774249635000047 ], [ 90.333891729000072, 23.774460225000041 ], [ 90.333496557000046, 23.775129478000053 ], [ 90.333455674000049, 23.775454735000039 ], [ 90.333980083000085, 23.776390719000062 ], [ 90.336511193000035, 23.77810816300007 ], [ 90.337327600000037, 23.778795105000029 ], [ 90.337495656000044, 23.779022806000057 ], [ 90.337371190000056, 23.77952212100007 ], [ 90.337163461000046, 23.779847743000062 ], [ 90.336663609000084, 23.780363684000065 ], [ 90.335850336000078, 23.780900627000051 ], [ 90.335080570000059, 23.781898125000055 ], [ 90.334916135000071, 23.783083989000033 ], [ 90.335150137000085, 23.783909951000055 ], [ 90.335376480000036, 23.784379146000049 ], [ 90.335531540000034, 23.784322355000029 ], [ 90.336070336000034, 23.785346365000066 ], [ 90.33707608900005, 23.786407740000072 ], [ 90.337767581000037, 23.787399797000035 ], [ 90.338628496000069, 23.789138911000066 ], [ 90.339008727000078, 23.789799702000039 ], [ 90.339101336000056, 23.789788208000061 ], [ 90.339238137000052, 23.790022750000048 ], [ 90.339495166000063, 23.790959300000054 ], [ 90.339604067000039, 23.793675562000033 ], [ 90.33980994500007, 23.794519640000033 ], [ 90.339862692000054, 23.795221795000032 ], [ 90.339729283000054, 23.795822746000056 ], [ 90.339585775000046, 23.795843383000033 ], [ 90.339586680000082, 23.796193389000052 ], [ 90.339420092000069, 23.79653924400003 ], [ 90.339378966000083, 23.796767402000057 ], [ 90.33949003400005, 23.796776191000049 ], [ 90.339358464000043, 23.797142294000025 ], [ 90.339359924000064, 23.797704558000078 ], [ 90.339508110000054, 23.798065529000041 ], [ 90.33990514900006, 23.798335628000075 ], [ 90.340323604000048, 23.798583098000051 ], [ 90.34088778000006, 23.798715079000033 ], [ 90.341578133000041, 23.799000332000048 ], [ 90.341819803000078, 23.799212058000023 ], [ 90.341856698000072, 23.799478433000047 ], [ 90.342283251000083, 23.800471052000034 ], [ 90.342470176000063, 23.801330975000042 ], [ 90.342545180000059, 23.802324374000023 ], [ 90.342564483000046, 23.802900148000049 ], [ 90.342228807000083, 23.803691438000044 ], [ 90.341974612000058, 23.804678582000065 ], [ 90.341720968000061, 23.805053990000033 ], [ 90.340908981000041, 23.805898058000025 ], [ 90.339994277000073, 23.806649767000067 ], [ 90.339334432000044, 23.807493493000038 ], [ 90.338526308000041, 23.809839175000036 ], [ 90.338324784000065, 23.810681889000023 ], [ 90.338530922000075, 23.811618549000059 ], [ 90.339454919000048, 23.814660439000079 ], [ 90.340019404000031, 23.816298574000029 ], [ 90.340487161000055, 23.817311430000075 ], [ 90.340578251000068, 23.817887043000042 ], [ 90.340531308000038, 23.818239411000036 ], [ 90.34032277600005, 23.818513100000075 ], [ 90.339905884000075, 23.818654021000043 ], [ 90.339311286000054, 23.818655332000048 ], [ 90.338226510000084, 23.818459002000054 ], [ 90.337463767000031, 23.81845389700004 ], [ 90.336693604000061, 23.818902686000058 ], [ 90.336373219000052, 23.819350489000044 ], [ 90.336111309000046, 23.820346880000045 ], [ 90.336160938000035, 23.820793876000039 ], [ 90.336483327000053, 23.821359955000048 ], [ 90.337015289000078, 23.822049771000025 ], [ 90.33875486200003, 23.823906632000046 ], [ 90.340180065000084, 23.825204158000076 ], [ 90.341402538000068, 23.825937596000074 ], [ 90.342134285000043, 23.826274687000023 ], [ 90.34226338600007, 23.826597309000078 ], [ 90.342265960000077, 23.82687730400005 ], [ 90.342198659000076, 23.826954232000048 ], [ 90.342265788000077, 23.827279247000035 ], [ 90.340993410000067, 23.827650138000024 ], [ 90.340196523000031, 23.827986095000028 ], [ 90.339960102000077, 23.828395334000049 ], [ 90.33984739400006, 23.828946555000073 ], [ 90.339645373000053, 23.829134423000028 ], [ 90.338882821000084, 23.829463524000062 ], [ 90.33740669000008, 23.829841607000048 ], [ 90.337204046000068, 23.830029470000056 ], [ 90.336850893000076, 23.831342196000037 ], [ 90.336776055000087, 23.832067208000069 ], [ 90.336826279000036, 23.832505171000037 ], [ 90.336696764000067, 23.832494163000035 ], [ 90.336690800000042, 23.832561919000057 ], [ 90.336909610000077, 23.832929510000042 ], [ 90.338072335000049, 23.833794073000035 ], [ 90.338436852000086, 23.834260698000037 ], [ 90.338387141000055, 23.834732749000068 ], [ 90.337551664000046, 23.83653879700006 ], [ 90.337683892000086, 23.837832394000031 ], [ 90.33790226900004, 23.838265471000057 ], [ 90.338957373000085, 23.839496072000031 ], [ 90.341137100000083, 23.84106063400003 ], [ 90.341356718000043, 23.841726287000029 ], [ 90.341212381000048, 23.842153386000064 ], [ 90.340978728000039, 23.842456488000039 ], [ 90.339912542000036, 23.843583372000069 ], [ 90.33831200700007, 23.845038847000069 ], [ 90.336964931000068, 23.846026325000025 ], [ 90.336799579000058, 23.846640888000024 ], [ 90.336873554000078, 23.847241379000025 ], [ 90.337165928000047, 23.848040104000063 ], [ 90.337893378000047, 23.84880626100005 ], [ 90.338511508000067, 23.849306201000047 ], [ 90.339540639000063, 23.849954265000065 ], [ 90.340531127000077, 23.851076606000049 ], [ 90.340436363000038, 23.851219077000053 ], [ 90.340584583000066, 23.851568751000059 ], [ 90.341386072000034, 23.852935377000051 ], [ 90.342367067000055, 23.853466111000046 ], [ 90.343164719000072, 23.853364980000038 ], [ 90.343819286000041, 23.854165143000046 ], [ 90.344617289000041, 23.854194971000027 ], [ 90.345487541000068, 23.85392656700003 ], [ 90.347007851000058, 23.852988302000028 ], [ 90.347732626000038, 23.852720214000044 ], [ 90.348925634000068, 23.852652031000048 ], [ 90.349846358000036, 23.854043183000044 ], [ 90.35008926900008, 23.854672637000078 ], [ 90.350132750000057, 23.85558730200006 ], [ 90.350285042000053, 23.855602607000037 ], [ 90.345962713000063, 23.857178645000033 ], [ 90.344883768000045, 23.857776375000071 ], [ 90.34614606100007, 23.858681757000056 ], [ 90.346635922000075, 23.859187300000031 ], [ 90.347548947000064, 23.860518768000077 ], [ 90.348901261000037, 23.862862524000036 ], [ 90.350476292000053, 23.864904642000056 ], [ 90.351712473000077, 23.869188293000036 ], [ 90.351894605000041, 23.875361616000077 ], [ 90.352043614000081, 23.876483495000059 ], [ 90.352432228000055, 23.877083514000049 ], [ 90.357642585000065, 23.881287458000031 ], [ 90.358773517000031, 23.882628598000053 ], [ 90.358985231000077, 23.884002949000035 ], [ 90.358388854000054, 23.885092414000042 ], [ 90.357654254000067, 23.88689826500007 ], [ 90.357147036000072, 23.888660369000036 ], [ 90.357111571000075, 23.889185296000051 ], [ 90.357732291000048, 23.889853968000068 ], [ 90.358879397000067, 23.890848473000062 ], [ 90.359303444000034, 23.89156762500005 ], [ 90.359479812000075, 23.892319216000033 ], [ 90.359832475000076, 23.893168054000057 ], [ 90.360213403000046, 23.893334851000077 ], [ 90.360345962000054, 23.893576008000025 ], [ 90.360629452000069, 23.89373792300006 ], [ 90.361371830000053, 23.893767795000031 ], [ 90.362115280000069, 23.893962499000054 ], [ 90.36459185800004, 23.894767297000044 ], [ 90.367811479000068, 23.895606409000038 ], [ 90.369545361000064, 23.896252579000077 ], [ 90.370500656000047, 23.896444476000056 ], [ 90.373116835000076, 23.89643815200003 ], [ 90.373965737000049, 23.896567057000027 ], [ 90.374779299000068, 23.89679088500003 ], [ 90.375699373000032, 23.897113804000071 ], [ 90.376938960000075, 23.897729483000035 ], [ 90.379276757000071, 23.899315675000025 ], [ 90.379949418000081, 23.899639178000029 ], [ 90.380621230000031, 23.899671385000033 ], [ 90.384718942000063, 23.898588609000058 ], [ 90.385813081000038, 23.897967158000029 ], [ 90.387539269000058, 23.895786042000054 ], [ 90.388885563000031, 23.894681612000056 ], [ 90.38924058200007, 23.894154133000029 ], [ 90.389511722000066, 23.89343944500007 ], [ 90.389686015000052, 23.892594486000064 ], [ 90.390035879000038, 23.891947792000053 ], [ 90.391039592000084, 23.891091694000067 ], [ 90.39242316900004, 23.88957074800004 ], [ 90.39273083300003, 23.88857867300004 ], [ 90.39254601500005, 23.886944303000064 ], [ 90.392707327000039, 23.886282277000078 ], [ 90.392999399000075, 23.885619916000053 ], [ 90.393063161000043, 23.885183945000051 ], [ 90.393046291000076, 23.884883665000075 ], [ 90.392700298000079, 23.883954223000046 ], [ 90.392731706000063, 23.883579305000069 ], [ 90.392894100000035, 23.883278567000048 ], [ 90.393415570000059, 23.882751104000079 ], [ 90.393756452000048, 23.882194746000039 ], [ 90.39389135600004, 23.880910103000076 ], [ 90.394005374000074, 23.88079988100003 ], [ 90.394353598000066, 23.88078942900006 ], [ 90.395394304000035, 23.881164350000063 ], [ 90.396158950000085, 23.881348789000072 ], [ 90.398259497000083, 23.881548892000069 ], [ 90.399606997000035, 23.881956448000039 ], [ 90.402483368000048, 23.882584644000076 ], [ 90.403003139000077, 23.882578504000037 ], [ 90.403771607000067, 23.88231361000004 ], [ 90.40516997800006, 23.88235773200006 ], [ 90.405517922000058, 23.882256442000028 ], [ 90.407294081000032, 23.882234031000053 ], [ 90.409515491000036, 23.882510397000033 ], [ 90.41210962200006, 23.883000246000051 ], [ 90.413122677000047, 23.883607207000068 ], [ 90.414683237000077, 23.884752365000054 ], [ 90.415080472000056, 23.885336133000067 ], [ 90.415900437000062, 23.88602714600006 ], [ 90.418025374000081, 23.886633324000059 ], [ 90.419138515000043, 23.887036748000071 ], [ 90.421668308000051, 23.887716288000036 ], [ 90.422174909000034, 23.887936188000026 ], [ 90.423147963000076, 23.889426529000048 ], [ 90.424803370000063, 23.890995405000069 ], [ 90.425971617000073, 23.891897658000062 ], [ 90.42921106600005, 23.89399994200005 ], [ 90.430277669000077, 23.894810751000023 ], [ 90.43119534300007, 23.895642776000045 ], [ 90.432032898000045, 23.896223005000024 ], [ 90.434039074000054, 23.896877990000064 ], [ 90.435440520000043, 23.898064163000072 ], [ 90.437286147000066, 23.900314639000044 ], [ 90.43743171400007, 23.900303944000029 ], [ 90.437754301000041, 23.90069359000006 ], [ 90.438205484000036, 23.900660692000031 ], [ 90.438750866000078, 23.900340751000044 ] ] ] } }
]
}
